{"type": "FeatureCollection", "features": [ {"type": "Feature", "properties": {"norad_id": 30071, "name": "FENGYUN 1C DEB", "group": "fengyun-1c-debris", "lat": -78.76764538433174, "lon": 140.31363939039534, "alt_km": 753.4693285789872, "timestamp": "2025-12-16T19:34:24.540902+00:00", "meta": {"OBJECT_NAME": "FENGYUN 1C DEB", "OBJECT_ID": "1999-025PY", "EPOCH": "2025-12-15T06:03:11.370816", "MEAN_MOTION": 14.52198338, "ECCENTRICITY": 0.00390812, "INCLINATION": 98.6582, "RA_OF_ASC_NODE": 88.5923, "ARG_OF_PERICENTER": 102.1889, "MEAN_ANOMALY": 286.6554, "EPHEMERIS_TYPE": 0, "CLASSIFICATION_TYPE": "U", "NORAD_CAT_ID": 30071, "ELEMENT_SET_NO": 999, "REV_AT_EPOCH": 98263, "BSTAR": 0.0015437801, "MEAN_MOTION_DOT": 6.281e-05, "MEAN_MOTION_DDOT": 0}, "tle": {"line1": "1 30071U 99025PY  25349.25221494  .00006281  00000+0  15438-2 0  9997", "line2": "2 30071  98.6582  88.5923 0039081 102.1889 286.6554 14.52198338982634"}}, "geometry": {"type": "Point", "coordinates": [140.31363939039534, -78.76764538433174]}}, {"type": "Feature", "properties": {"norad_id": 30072, "name": "FENGYUN 1C DEB", "group": "fengyun-1c-debris", "lat": 29.568477753512976, "lon": 134.1068882997034, "alt_km": 791.0714061221997, "timestamp": "2025-12-16T19:34:24.540912+00:00", "meta": {"OBJECT_NAME": "FENGYUN 1C DEB", "OBJECT_ID": "1999-025PZ", "EPOCH": "2025-12-15T21:43:20.658144", "MEAN_MOTION": 14.37842206, "ECCENTRICITY": 0.00597611, "INCLINATION": 99.0755, "RA_OF_ASC_NODE": 138.349, "ARG_OF_PERICENTER": 263.2726, "MEAN_ANOMALY": 96.1656, "EPHEMERIS_TYPE": 0, "CLASSIFICATION_TYPE": "U", "NORAD_CAT_ID": 30072, "ELEMENT_SET_NO": 999, "REV_AT_EPOCH": 97216, "BSTAR": 0.002293534, "MEAN_MOTION_DOT": 7.017e-05, "MEAN_MOTION_DDOT": 0}, "tle": {"line1": "1 30072U 99025PZ  25349.90510021  .00007017  00000+0  22935-2 0  9995", "line2": "2 30072  99.0755 138.3490 0059761 263.2726  96.1656 14.37842206972168"}}, "geometry": {"type": "Point", "coordinates": [134.1068882997034, 29.568477753512976]}}, {"type": "Feature", "properties": {"norad_id": 30073, "name": "FENGYUN 1C DEB", "group": "fengyun-1c-debris", "lat": 18.952464182546112, "lon": -39.072192255629076, "alt_km": 842.8900797192164, "timestamp": "2025-12-16T19:34:24.540922+00:00", "meta": {"OBJECT_NAME": "FENGYUN 1C DEB", "OBJECT_ID": "1999-025QA", "EPOCH": "2025-12-15T21:44:21.022368", "MEAN_MOTION": 14.18688245, "ECCENTRICITY": 0.00532821, "INCLINATION": 99.4115, "RA_OF_ASC_NODE": 323.2282, "ARG_OF_PERICENTER": 271.8574, "MEAN_ANOMALY": 143.0365, "EPHEMERIS_TYPE": 0, "CLASSIFICATION_TYPE": "U", "NORAD_CAT_ID": 30073, "ELEMENT_SET_NO": 999, "REV_AT_EPOCH": 96970, "BSTAR": 0.0011358993, "MEAN_MOTION_DOT": 2.341e-05, "MEAN_MOTION_DDOT": 0}, "tle": {"line1": "1 30073U 99025QA  25349.90579887  .00002341  00000+0  11359-2 0  9994", "line2": "2 30073  99.4115 323.2282 0053282 271.8574 143.0365 14.18688245969700"}}, "geometry": {"type": "Point", "coordinates": [-39.072192255629076, 18.952464182546112]}}, {"type": "Feature", "properties": {"norad_id": 30074, "name": "FENGYUN 1C DEB", "group": "fengyun-1c-debris", "lat": 46.449807845047104, "lon": 47.39252259233396, "alt_km": 848.7796826089561, "timestamp": "2025-12-16T19:34:24.540932+00:00", "meta": {"OBJECT_NAME": "FENGYUN 1C DEB", "OBJECT_ID": "1999-025QB", "EPOCH": "2025-12-15T11:03:21.906144", "MEAN_MOTION": 14.12872322, "ECCENTRICITY": 0.00972202, "INCLINATION": 99.1301, "RA_OF_ASC_NODE": 55.7508, "ARG_OF_PERICENTER": 144.414, "MEAN_ANOMALY": 216.3566, "EPHEMERIS_TYPE": 0, "CLASSIFICATION_TYPE": "U", "NORAD_CAT_ID": 30074, "ELEMENT_SET_NO": 999, "REV_AT_EPOCH": 96700, "BSTAR": 0.0011285527, "MEAN_MOTION_DOT": 2.151e-05, "MEAN_MOTION_DDOT": 0}, "tle": {"line1": "1 30074U 99025QB  25349.46067021  .00002151  00000+0  11286-2 0  9996", "line2": "2 30074  99.1301  55.7508 0097220 144.4140 216.3566 14.12872322967000"}}, "geometry": {"type": "Point", "coordinates": [47.39252259233396, 46.449807845047104]}}, {"type": "Feature", "properties": {"norad_id": 30075, "name": "FENGYUN 1C DEB", "group": "fengyun-1c-debris", "lat": -25.48182098810039, "lon": -143.33790319939905, "alt_km": 873.8003744371426, "timestamp": "2025-12-16T19:34:24.540942+00:00", "meta": {"OBJECT_NAME": "FENGYUN 1C DEB", "OBJECT_ID": "1999-025QC", "EPOCH": "2025-12-15T15:43:54.399072", "MEAN_MOTION": 13.92534069, "ECCENTRICITY": 0.00911795, "INCLINATION": 99.3616, "RA_OF_ASC_NODE": 39.9994, "ARG_OF_PERICENTER": 169.207, "MEAN_ANOMALY": 343.4221, "EPHEMERIS_TYPE": 0, "CLASSIFICATION_TYPE": "U", "NORAD_CAT_ID": 30075, "ELEMENT_SET_NO": 999, "REV_AT_EPOCH": 96105, "BSTAR": 0.00010820543, "MEAN_MOTION_DOT": 9.9e-07, "MEAN_MOTION_DDOT": 0}, "tle": {"line1": "1 30075U 99025QC  25349.65549073  .00000099  00000+0  10821-3 0  9994", "line2": "2 30075  99.3616  39.9994 0091179 169.2070 343.4221 13.92534069961058"}}, "geometry": {"type": "Point", "coordinates": [-143.33790319939905, -25.48182098810039]}}, {"type": "Feature", "properties": {"norad_id": 30076, "name": "FENGYUN 1C DEB", "group": "fengyun-1c-debris", "lat": 20.687575156690027, "lon": -26.101864993562796, "alt_km": 914.5896049801968, "timestamp": "2025-12-16T19:34:24.540953+00:00", "meta": {"OBJECT_NAME": "FENGYUN 1C DEB", "OBJECT_ID": "1999-025QD", "EPOCH": "2025-12-15T22:47:59.466912", "MEAN_MOTION": 13.76292942, "ECCENTRICITY": 0.0175745, "INCLINATION": 99.2384, "RA_OF_ASC_NODE": 336.5816, "ARG_OF_PERICENTER": 85.4387, "MEAN_ANOMALY": 331.0973, "EPHEMERIS_TYPE": 0, "CLASSIFICATION_TYPE": "U", "NORAD_CAT_ID": 30076, "ELEMENT_SET_NO": 999, "REV_AT_EPOCH": 94938, "BSTAR": 0.00029912191, "MEAN_MOTION_DOT": 2.85e-06, "MEAN_MOTION_DDOT": 0}, "tle": {"line1": "1 30076U 99025QD  25349.94999383  .00000285  00000+0  29912-3 0  9998", "line2": "2 30076  99.2384 336.5816 0175745  85.4387 331.0973 13.76292942949383"}}, "geometry": {"type": "Point", "coordinates": [-26.101864993562796, 20.687575156690027]}}, {"type": "Feature", "properties": {"norad_id": 30077, "name": "FENGYUN 1C DEB", "group": "fengyun-1c-debris", "lat": 37.25306157585099, "lon": -0.3887698496763081, "alt_km": 878.8324904101646, "timestamp": "2025-12-16T19:34:24.540963+00:00", "meta": {"OBJECT_NAME": "FENGYUN 1C DEB", "OBJECT_ID": "1999-025QE", "EPOCH": "2025-12-15T13:29:27.422880", "MEAN_MOTION": 14.07080327, "ECCENTRICITY": 0.00204153, "INCLINATION": 98.758, "RA_OF_ASC_NODE": 5.1297, "ARG_OF_PERICENTER": 255.8072, "MEAN_ANOMALY": 276.1646, "EPHEMERIS_TYPE": 0, "CLASSIFICATION_TYPE": "U", "NORAD_CAT_ID": 30077, "ELEMENT_SET_NO": 999, "REV_AT_EPOCH": 97152, "BSTAR": 2.0677109e-05, "MEAN_MOTION_DOT": -8e-08, "MEAN_MOTION_DDOT": 0}, "tle": {"line1": "1 30077U 99025QE  25349.56212295 -.00000008  00000+0  20677-4 0  9991", "line2": "2 30077  98.7580   5.1297 0020415 255.8072 276.1646 14.07080327971529"}}, "geometry": {"type": "Point", "coordinates": [-0.3887698496763081, 37.25306157585099]}}, {"type": "Feature", "properties": {"norad_id": 30078, "name": "FENGYUN 1C DEB", "group": "fengyun-1c-debris", "lat": 17.523078471579726, "lon": -111.49017172661729, "alt_km": 825.6725266829662, "timestamp": "2025-12-16T19:34:24.540973+00:00", "meta": {"OBJECT_NAME": "FENGYUN 1C DEB", "OBJECT_ID": "1999-025QF", "EPOCH": "2025-12-15T19:43:58.830816", "MEAN_MOTION": 14.23153178, "ECCENTRICITY": 0.005288, "INCLINATION": 98.8326, "RA_OF_ASC_NODE": 64.6994, "ARG_OF_PERICENTER": 271.4741, "MEAN_ANOMALY": 204.8193, "EPHEMERIS_TYPE": 0, "CLASSIFICATION_TYPE": "U", "NORAD_CAT_ID": 30078, "ELEMENT_SET_NO": 999, "REV_AT_EPOCH": 97157, "BSTAR": 0.00096017097, "MEAN_MOTION_DOT": 2.155e-05, "MEAN_MOTION_DDOT": 0}, "tle": {"line1": "1 30078U 99025QF  25349.82220869  .00002155  00000+0  96017-3 0  9991", "line2": "2 30078  98.8326  64.6994 0052880 271.4741 204.8193 14.23153178971574"}}, "geometry": {"type": "Point", "coordinates": [-111.49017172661729, 17.523078471579726]}}, {"type": "Feature", "properties": {"norad_id": 30079, "name": "FENGYUN 1C DEB", "group": "fengyun-1c-debris", "lat": -66.59919798659111, "lon": 67.87926742902555, "alt_km": 836.8406131127376, "timestamp": "2025-12-16T19:34:24.540983+00:00", "meta": {"OBJECT_NAME": "FENGYUN 1C DEB", "OBJECT_ID": "1999-025QG", "EPOCH": "2025-12-15T02:53:31.866144", "MEAN_MOTION": 14.00795472, "ECCENTRICITY": 0.00846627, "INCLINATION": 99.0349, "RA_OF_ASC_NODE": 44.6317, "ARG_OF_PERICENTER": 292.288, "MEAN_ANOMALY": 96.1201, "EPHEMERIS_TYPE": 0, "CLASSIFICATION_TYPE": "U", "NORAD_CAT_ID": 30079, "ELEMENT_SET_NO": 999, "REV_AT_EPOCH": 96571, "BSTAR": 0.00016978872, "MEAN_MOTION_DOT": 2.16e-06, "MEAN_MOTION_DDOT": 0}, "tle": {"line1": "1 30079U 99025QG  25349.12050771  .00000216  00000+0  16979-3 0  9993", "line2": "2 30079  99.0349  44.6317 0084662 292.2880  96.1201 14.00795472965713"}}, "geometry": {"type": "Point", "coordinates": [67.87926742902555, -66.59919798659111]}}, {"type": "Feature", "properties": {"norad_id": 30080, "name": "FENGYUN 1C DEB", "group": "fengyun-1c-debris", "lat": 34.17976773865378, "lon": 157.1751036391744, "alt_km": 863.4397573761626, "timestamp": "2025-12-16T19:34:24.540993+00:00", "meta": {"OBJECT_NAME": "FENGYUN 1C DEB", "OBJECT_ID": "1999-025QH", "EPOCH": "2025-12-15T22:45:07.403904", "MEAN_MOTION": 14.10825124, "ECCENTRICITY": 0.01337599, "INCLINATION": 98.6984, "RA_OF_ASC_NODE": 330.3677, "ARG_OF_PERICENTER": 51.5482, "MEAN_ANOMALY": 8.3541, "EPHEMERIS_TYPE": 0, "CLASSIFICATION_TYPE": "U", "NORAD_CAT_ID": 30080, "ELEMENT_SET_NO": 999, "REV_AT_EPOCH": 97283, "BSTAR": 0.00029953503, "MEAN_MOTION_DOT": 5.41e-06, "MEAN_MOTION_DDOT": 0}, "tle": {"line1": "1 30080U 99025QH  25349.94800236  .00000541  00000+0  29954-3 0  9992", "line2": "2 30080  98.6984 330.3677 0133759  51.5482   8.3541 14.10825124972837"}}, "geometry": {"type": "Point", "coordinates": [157.1751036391744, 34.17976773865378]}}]}